*******************************************************************************
Ephemeris / WWW_USER Mon Mar 24 08:22:24 2025 Pasadena, USA      / Horizons    
*******************************************************************************
Target body name: (2018 VA2)                      {source: JPL#8}
Center body name: Earth (399)                     {source: DE441}
Center-site name: Mauna Kea
*******************************************************************************
Start time      : A.D. 2018-Sep-13 04:36:00.0000 UT      
Stop  time      : A.D. 2018-Sep-13 15:59:00.0000 UT      
Step-size       : 1 minutes
*******************************************************************************
Target pole/equ : undefined
Target radii    : undefined                                                    
Center geodetic : 204.5278, 19.8260847, 4.21024   {E-lon(deg),Lat(deg),Alt(km)}
Center cylindric: 204.5278, 6006.35451, 2151.0229 {E-lon(deg),Dxy(km),Dz(km)}
Center pole/equ : ITRF93                          {East-longitude positive}
Center radii    : 6378.137, 6378.137, 6356.752 km {Equator_a, b, pole_c}       
Target primary  : Sun
Vis. interferer : MOON (R_eq= 1737.400) km        {source: DE441}
Rel. light bend : Sun                             {source: DE441}
Rel. lght bnd GM: 1.3271E+11 km^3/s^2                                          
Small-body perts: Yes                             {source: SB441-N16}
Atmos refraction: NO (AIRLESS)
RA format       : HMS
Time format     : CAL 
Calendar mode   : Mixed Julian/Gregorian
RTS-only print  : NO       
EOP file        : eop.250321.p250617                                           
EOP coverage    : DATA-BASED 1962-JAN-20 TO 2025-MAR-21. PREDICTS-> 2025-JUN-16
Units conversion: 1 au= 149597870.700 km, c= 299792.458 km/s, 1 day= 86400.0 s 
Table cut-offs 1: Elevation (-90.0deg=NO ),Airmass (>38.000=NO), Daylight (YES)
Table cut-offs 2: Solar elongation (  0.0,180.0=NO ),Local Hour Angle( 0.0=NO )
Table cut-offs 3: RA/DEC angular rate (     0.0=NO )                           
*******************************************************************************
Initial IAU76/J2000 heliocentric ecliptic osculating elements (au, days, deg.):
  EPOCH=  2458428.5 ! 2018-Nov-06.00 (TDB)         Residual RMS= .39675        
   EC= .3242664208426159   QR= .935847567628844    TP= 2458464.9625425939      
   OM= 226.0068906557846   W=  220.7446970607937   IN= 3.947636678272312       
  Equivalent ICRF heliocentric cartesian coordinates (au, au/d):
   X= 7.314601530918681E-01  Y= 6.289465658343808E-01  Z= 2.763726037901882E-01
  VX=-1.554701504922309E-02 VY= 1.109318211007817E-02 VZ= 3.366540373951610E-03
Asteroid physical parameters (km, seconds, rotational period in hours):        
   GM= n.a.                RAD= n.a.               ROTPER= n.a.                
   H= 27.08                G= .150                 B-V= n.a.                   
                           ALBEDO= n.a.            STYP= n.a.                  
*******************************************************************************
 Date__(UT)__HR:MN     R.A._________(ICRF)_________DEC
******************************************************
$$SOE
 2018-Sep-13 08:42     00 39 12.805124 +19 40 30.40389
 2018-Sep-13 08:43     00 39 12.811327 +19 40 30.91443
 2018-Sep-13 08:44     00 39 12.817500 +19 40 31.42483
 2018-Sep-13 08:45     00 39 12.823645 +19 40 31.93507
 2018-Sep-13 08:46     00 39 12.829761 +19 40 32.44517
 2018-Sep-13 08:47     00 39 12.835848 +19 40 32.95511
 2018-Sep-13 08:48     00 39 12.841907 +19 40 33.46490
 2018-Sep-13 08:49     00 39 12.847937 +19 40 33.97454
 2018-Sep-13 08:50     00 39 12.853939 +19 40 34.48402
 2018-Sep-13 08:51     00 39 12.859913 +19 40 34.99336
 2018-Sep-13 08:52     00 39 12.865858 +19 40 35.50254
 2018-Sep-13 08:53     00 39 12.871776 +19 40 36.01156
 2018-Sep-13 08:54     00 39 12.877666 +19 40 36.52043
 2018-Sep-13 08:55     00 39 12.883529 +19 40 37.02914
 2018-Sep-13 08:56     00 39 12.889364 +19 40 37.53770
 2018-Sep-13 08:57     00 39 12.895172 +19 40 38.04610
 2018-Sep-13 08:58     00 39 12.900952 +19 40 38.55434
 2018-Sep-13 08:59     00 39 12.906705 +19 40 39.06242
 2018-Sep-13 09:00     00 39 12.912432 +19 40 39.57035
 2018-Sep-13 09:01     00 39 12.918132 +19 40 40.07812
 2018-Sep-13 09:02     00 39 12.923805 +19 40 40.58572
 2018-Sep-13 09:03     00 39 12.929452 +19 40 41.09317
 2018-Sep-13 09:04     00 39 12.935072 +19 40 41.60046
 2018-Sep-13 09:05     00 39 12.940666 +19 40 42.10758
 2018-Sep-13 09:06     00 39 12.946234 +19 40 42.61454
 2018-Sep-13 09:07     00 39 12.951776 +19 40 43.12134
 2018-Sep-13 09:08     00 39 12.957293 +19 40 43.62798
 2018-Sep-13 09:09     00 39 12.962784 +19 40 44.13445
 2018-Sep-13 09:10     00 39 12.968249 +19 40 44.64076
 2018-Sep-13 09:11     00 39 12.973689 +19 40 45.14691
 2018-Sep-13 09:12     00 39 12.979104 +19 40 45.65289
 2018-Sep-13 09:13     00 39 12.984494 +19 40 46.15871
 2018-Sep-13 09:14     00 39 12.989859 +19 40 46.66435
 2018-Sep-13 09:15     00 39 12.995199 +19 40 47.16984
 2018-Sep-13 09:16     00 39 13.000515 +19 40 47.67515
 2018-Sep-13 09:17     00 39 13.005806 +19 40 48.18030
 2018-Sep-13 09:18     00 39 13.011073 +19 40 48.68528
 2018-Sep-13 09:19     00 39 13.016316 +19 40 49.19009
 2018-Sep-13 09:20     00 39 13.021535 +19 40 49.69473
 2018-Sep-13 09:21     00 39 13.026730 +19 40 50.19921
 2018-Sep-13 09:22     00 39 13.031901 +19 40 50.70351
 2018-Sep-13 09:23     00 39 13.037049 +19 40 51.20764
 2018-Sep-13 09:24     00 39 13.042174 +19 40 51.71160
 2018-Sep-13 09:25     00 39 13.047275 +19 40 52.21539
 2018-Sep-13 09:26     00 39 13.052353 +19 40 52.71901
 2018-Sep-13 09:27     00 39 13.057408 +19 40 53.22245
 2018-Sep-13 09:28     00 39 13.062441 +19 40 53.72573
 2018-Sep-13 09:29     00 39 13.067451 +19 40 54.22883
 2018-Sep-13 09:30     00 39 13.072439 +19 40 54.73175
 2018-Sep-13 09:31     00 39 13.077404 +19 40 55.23450
 2018-Sep-13 09:32     00 39 13.082347 +19 40 55.73708
 2018-Sep-13 09:33     00 39 13.087268 +19 40 56.23948
 2018-Sep-13 09:34     00 39 13.092167 +19 40 56.74170
 2018-Sep-13 09:35     00 39 13.097045 +19 40 57.24375
 2018-Sep-13 09:36     00 39 13.101901 +19 40 57.74563
 2018-Sep-13 09:37     00 39 13.106736 +19 40 58.24732
 2018-Sep-13 09:38     00 39 13.111550 +19 40 58.74884
 2018-Sep-13 09:39     00 39 13.116342 +19 40 59.25018
 2018-Sep-13 09:40     00 39 13.121114 +19 40 59.75134
 2018-Sep-13 09:41     00 39 13.125865 +19 41 00.25233
 2018-Sep-13 09:42     00 39 13.130595 +19 41 00.75313
 2018-Sep-13 09:43     00 39 13.135306 +19 41 01.25376
 2018-Sep-13 09:44     00 39 13.139995 +19 41 01.75420
 2018-Sep-13 09:45     00 39 13.144665 +19 41 02.25447
 2018-Sep-13 09:46     00 39 13.149315 +19 41 02.75455
 2018-Sep-13 09:47     00 39 13.153945 +19 41 03.25445
 2018-Sep-13 09:48     00 39 13.158556 +19 41 03.75417
 2018-Sep-13 09:49     00 39 13.163147 +19 41 04.25371
 2018-Sep-13 09:50     00 39 13.167719 +19 41 04.75307
 2018-Sep-13 09:51     00 39 13.172272 +19 41 05.25224
 2018-Sep-13 09:52     00 39 13.176806 +19 41 05.75124
 2018-Sep-13 09:53     00 39 13.181321 +19 41 06.25004
 2018-Sep-13 09:54     00 39 13.185818 +19 41 06.74867
 2018-Sep-13 09:55     00 39 13.190296 +19 41 07.24711
 2018-Sep-13 09:56     00 39 13.194756 +19 41 07.74536
 2018-Sep-13 09:57     00 39 13.199197 +19 41 08.24343
 2018-Sep-13 09:58     00 39 13.203621 +19 41 08.74131
 2018-Sep-13 09:59     00 39 13.208027 +19 41 09.23901
 2018-Sep-13 10:00     00 39 13.212416 +19 41 09.73652
 2018-Sep-13 10:01     00 39 13.216787 +19 41 10.23385
 2018-Sep-13 10:02     00 39 13.221141 +19 41 10.73099
 2018-Sep-13 10:03     00 39 13.225477 +19 41 11.22794
 2018-Sep-13 10:04     00 39 13.229797 +19 41 11.72470
 2018-Sep-13 10:05     00 39 13.234100 +19 41 12.22128
 2018-Sep-13 10:06     00 39 13.238387 +19 41 12.71767
 2018-Sep-13 10:07     00 39 13.242657 +19 41 13.21387
 2018-Sep-13 10:08     00 39 13.246910 +19 41 13.70988
 2018-Sep-13 10:09     00 39 13.251148 +19 41 14.20570
 2018-Sep-13 10:10     00 39 13.255370 +19 41 14.70133
 2018-Sep-13 10:11     00 39 13.259576 +19 41 15.19677
 2018-Sep-13 10:12     00 39 13.263766 +19 41 15.69202
 2018-Sep-13 10:13     00 39 13.267941 +19 41 16.18709
 2018-Sep-13 10:14     00 39 13.272101 +19 41 16.68196
 2018-Sep-13 10:15     00 39 13.276246 +19 41 17.17663
 2018-Sep-13 10:16     00 39 13.280376 +19 41 17.67112
 2018-Sep-13 10:17     00 39 13.284491 +19 41 18.16542
 2018-Sep-13 10:18     00 39 13.288591 +19 41 18.65952
 2018-Sep-13 10:19     00 39 13.292678 +19 41 19.15343
 2018-Sep-13 10:20     00 39 13.296750 +19 41 19.64715
 2018-Sep-13 10:21     00 39 13.300808 +19 41 20.14068
 2018-Sep-13 10:22     00 39 13.304852 +19 41 20.63401
 2018-Sep-13 10:23     00 39 13.308882 +19 41 21.12715
 2018-Sep-13 10:24     00 39 13.312899 +19 41 21.62010
 2018-Sep-13 10:25     00 39 13.316903 +19 41 22.11285
 2018-Sep-13 10:26     00 39 13.320893 +19 41 22.60540
 2018-Sep-13 10:27     00 39 13.324871 +19 41 23.09777
 2018-Sep-13 10:28     00 39 13.328835 +19 41 23.58993
 2018-Sep-13 10:29     00 39 13.332788 +19 41 24.08191
 2018-Sep-13 10:30     00 39 13.336727 +19 41 24.57368
 2018-Sep-13 10:31     00 39 13.340654 +19 41 25.06527
 2018-Sep-13 10:32     00 39 13.344570 +19 41 25.55665
 2018-Sep-13 10:33     00 39 13.348473 +19 41 26.04784
 2018-Sep-13 10:34     00 39 13.352364 +19 41 26.53884
 2018-Sep-13 10:35     00 39 13.356244 +19 41 27.02963
 2018-Sep-13 10:36     00 39 13.360113 +19 41 27.52023
 2018-Sep-13 10:37     00 39 13.363970 +19 41 28.01064
 2018-Sep-13 10:38     00 39 13.367816 +19 41 28.50084
 2018-Sep-13 10:39     00 39 13.371652 +19 41 28.99085
 2018-Sep-13 10:40     00 39 13.375476 +19 41 29.48066
 2018-Sep-13 10:41     00 39 13.379291 +19 41 29.97027
 2018-Sep-13 10:42     00 39 13.383094 +19 41 30.45969
 2018-Sep-13 10:43     00 39 13.386888 +19 41 30.94891
 2018-Sep-13 10:44     00 39 13.390672 +19 41 31.43792
